{"type": "FeatureCollection", "features": [ {"type": "Feature", "properties": {"norad_id": 39019, "name": "PLEIADES 1B", "group": "resource", "lat": 39.46478894387178, "lon": -100.53312568093166, "alt_km": 694.3147176961038, "timestamp": "2025-12-26T05:31:12.156778+00:00", "meta": {"OBJECT_NAME": "PLEIADES 1B", "OBJECT_ID": "2012-068A", "EPOCH": "2025-12-25T22:17:41.558208", "MEAN_MOTION": 14.58564449, "ECCENTRICITY": 0.00011509, "INCLINATION": 98.1776, "RA_OF_ASC_NODE": 72.3715, "ARG_OF_PERICENTER": 86.2727, "MEAN_ANOMALY": 273.8604, "EPHEMERIS_TYPE": 0, "CLASSIFICATION_TYPE": "U", "NORAD_CAT_ID": 39019, "ELEMENT_SET_NO": 999, "REV_AT_EPOCH": 69559, "BSTAR": 9.3482426e-05, "MEAN_MOTION_DOT": 3.89e-06, "MEAN_MOTION_DDOT": 0}, "tle": {"line1": "1 39019U 12068A   25359.92895322  .00000389  00000+0  93482-4 0  9992", "line2": "2 39019  98.1776  72.3715 0001150  86.2727 273.8604 14.58564449695590"}}, "geometry": {"type": "Point", "coordinates": [-100.53312568093166, 39.46478894387178]}}, {"type": "Feature", "properties": {"norad_id": 39030, "name": "GOKTURK 2", "group": "resource", "lat": 81.61188115174177, "lon": 134.85007237576926, "alt_km": 635.7353072480928, "timestamp": "2025-12-26T05:31:12.156788+00:00", "meta": {"OBJECT_NAME": "GOKTURK 2", "OBJECT_ID": "2012-073A", "EPOCH": "2025-12-25T22:37:03.924192", "MEAN_MOTION": 14.75311336, "ECCENTRICITY": 0.0001474, "INCLINATION": 97.6885, "RA_OF_ASC_NODE": 200.9466, "ARG_OF_PERICENTER": 106.2946, "MEAN_ANOMALY": 253.8426, "EPHEMERIS_TYPE": 0, "CLASSIFICATION_TYPE": "U", "NORAD_CAT_ID": 39030, "ELEMENT_SET_NO": 999, "REV_AT_EPOCH": 69896, "BSTAR": 0.00020777807, "MEAN_MOTION_DOT": 1.361e-05, "MEAN_MOTION_DDOT": 0}, "tle": {"line1": "1 39030U 12073A   25359.94240653  .00001361  00000+0  20778-3 0  9992", "line2": "2 39030  97.6885 200.9466 0001474 106.2946 253.8426 14.75311336698963"}}, "geometry": {"type": "Point", "coordinates": [134.85007237576926, 81.61188115174177]}}, {"type": "Feature", "properties": {"norad_id": 39084, "name": "LANDSAT 8", "group": "resource", "lat": -58.98335388927951, "lon": -125.78263590039845, "alt_km": 710.2442319529855, "timestamp": "2025-12-26T05:31:12.156798+00:00", "meta": {"OBJECT_NAME": "LANDSAT 8", "OBJECT_ID": "2013-008A", "EPOCH": "2025-12-25T21:49:48.274464", "MEAN_MOTION": 14.57115413, "ECCENTRICITY": 0.00010495, "INCLINATION": 98.2055, "RA_OF_ASC_NODE": 67.7877, "ARG_OF_PERICENTER": 93.355, "MEAN_ANOMALY": 266.7768, "EPHEMERIS_TYPE": 0, "CLASSIFICATION_TYPE": "U", "NORAD_CAT_ID": 39084, "ELEMENT_SET_NO": 999, "REV_AT_EPOCH": 67266, "BSTAR": 0.00010154565, "MEAN_MOTION_DOT": 4.12e-06, "MEAN_MOTION_DDOT": 0}, "tle": {"line1": "1 39084U 13008A   25359.90958651  .00000412  00000+0  10155-3 0  9994", "line2": "2 39084  98.2055  67.7877 0001049  93.3550 266.7768 14.57115413672667"}}, "geometry": {"type": "Point", "coordinates": [-125.78263590039845, -58.98335388927951]}}, {"type": "Feature", "properties": {"norad_id": 39086, "name": "SARAL", "group": "resource", "lat": 54.17325338805952, "lon": 16.012467033144627, "alt_km": 775.7932495574059, "timestamp": "2025-12-26T05:31:12.156808+00:00", "meta": {"OBJECT_NAME": "SARAL", "OBJECT_ID": "2013-009A", "EPOCH": "2025-12-25T22:14:07.270656", "MEAN_MOTION": 14.32761479, "ECCENTRICITY": 0.00029607, "INCLINATION": 98.5504, "RA_OF_ASC_NODE": 183.6847, "ARG_OF_PERICENTER": 83.7126, "MEAN_ANOMALY": 276.4395, "EPHEMERIS_TYPE": 0, "CLASSIFICATION_TYPE": "U", "NORAD_CAT_ID": 39086, "ELEMENT_SET_NO": 999, "REV_AT_EPOCH": 67079, "BSTAR": 6.0924243e-05, "MEAN_MOTION_DOT": 1.22e-06, "MEAN_MOTION_DDOT": 0}, "tle": {"line1": "1 39086U 13009A   25359.92647304  .00000122  00000+0  60924-4 0  9997", "line2": "2 39086  98.5504 183.6847 0002960  83.7126 276.4395 14.32761479670799"}}, "geometry": {"type": "Point", "coordinates": [16.012467033144627, 54.17325338805952]}}, {"type": "Feature", "properties": {"norad_id": 39150, "name": "GAOFEN-1", "group": "resource", "lat": -43.67295068806687, "lon": -116.99883859378674, "alt_km": 653.9654732587651, "timestamp": "2025-12-26T05:31:12.156818+00:00", "meta": {"OBJECT_NAME": "GAOFEN-1", "OBJECT_ID": "2013-018A", "EPOCH": "2025-12-25T23:37:49.738080", "MEAN_MOTION": 14.76503068, "ECCENTRICITY": 0.00185665, "INCLINATION": 97.9307, "RA_OF_ASC_NODE": 70.4083, "ARG_OF_PERICENTER": 102.883, "MEAN_ANOMALY": 257.4455, "EPHEMERIS_TYPE": 0, "CLASSIFICATION_TYPE": "U", "NORAD_CAT_ID": 39150, "ELEMENT_SET_NO": 999, "REV_AT_EPOCH": 68268, "BSTAR": 0.00014386314, "MEAN_MOTION_DOT": 9.54e-06, "MEAN_MOTION_DDOT": 0}, "tle": {"line1": "1 39150U 13018A   25359.98460345  .00000954  00000+0  14386-3 0  9996", "line2": "2 39150  97.9307  70.4083 0018566 102.8830 257.4455 14.76503068682687"}}, "geometry": {"type": "Point", "coordinates": [-116.99883859378674, -43.67295068806687]}}, {"type": "Feature", "properties": {"norad_id": 39160, "name": "VNREDSAT 1", "group": "resource", "lat": 80.43697430053038, "lon": -0.8523867623410168, "alt_km": 669.0275547017291, "timestamp": "2025-12-26T05:31:12.156828+00:00", "meta": {"OBJECT_NAME": "VNREDSAT 1", "OBJECT_ID": "2013-021B", "EPOCH": "2025-12-25T22:34:40.952064", "MEAN_MOTION": 14.64942205, "ECCENTRICITY": 0.00011681, "INCLINATION": 97.9351, "RA_OF_ASC_NODE": 54.7517, "ARG_OF_PERICENTER": 83.5227, "MEAN_ANOMALY": 276.6109, "EPHEMERIS_TYPE": 0, "CLASSIFICATION_TYPE": "U", "NORAD_CAT_ID": 39160, "ELEMENT_SET_NO": 999, "REV_AT_EPOCH": 67492, "BSTAR": 0.00016431252, "MEAN_MOTION_DOT": 8.34e-06, "MEAN_MOTION_DDOT": 0}, "tle": {"line1": "1 39160U 13021B   25359.94075176  .00000834  00000+0  16431-3 0  9991", "line2": "2 39160  97.9351  54.7517 0001168  83.5227 276.6109 14.64942205674923"}}, "geometry": {"type": "Point", "coordinates": [-0.8523867623410168, 80.43697430053038]}}, {"type": "Feature", "properties": {"norad_id": 39227, "name": "ARIRANG-5 (KOMPSAT-5)", "group": "resource", "lat": -75.5844737371776, "lon": -144.28578655681287, "alt_km": 561.1175707495922, "timestamp": "2025-12-26T05:31:12.156838+00:00", "meta": {"OBJECT_NAME": "ARIRANG-5 (KOMPSAT-5)", "OBJECT_ID": "2013-042A", "EPOCH": "2025-12-25T23:28:48.482688", "MEAN_MOTION": 15.04488187, "ECCENTRICITY": 0.00029697, "INCLINATION": 97.6166, "RA_OF_ASC_NODE": 184.0943, "ARG_OF_PERICENTER": 33.2502, "MEAN_ANOMALY": 326.891, "EPHEMERIS_TYPE": 0, "CLASSIFICATION_TYPE": "U", "NORAD_CAT_ID": 39227, "ELEMENT_SET_NO": 999, "REV_AT_EPOCH": 67781, "BSTAR": 0.00015229562, "MEAN_MOTION_DOT": 2.071e-05, "MEAN_MOTION_DDOT": 0}, "tle": {"line1": "1 39227U 13042A   25359.97833892  .00002071  00000+0  15230-3 0  9999", "line2": "2 39227  97.6166 184.0943 0002969  33.2502 326.8910 15.04488187677814"}}, "geometry": {"type": "Point", "coordinates": [-144.28578655681287, -75.5844737371776]}}, {"type": "Feature", "properties": {"norad_id": 39418, "name": "SKYSAT-A", "group": "resource", "lat": -76.44100344131674, "lon": 82.67970267215458, "alt_km": 539.150551728474, "timestamp": "2025-12-26T05:31:12.156848+00:00", "meta": {"OBJECT_NAME": "SKYSAT-A", "OBJECT_ID": "2013-066C", "EPOCH": "2025-12-25T17:09:33.388992", "MEAN_MOTION": 15.11695287, "ECCENTRICITY": 0.00217004, "INCLINATION": 97.4085, "RA_OF_ASC_NODE": 49.5285, "ARG_OF_PERICENTER": 190.0652, "MEAN_ANOMALY": 170.0148, "EPHEMERIS_TYPE": 0, "CLASSIFICATION_TYPE": "U", "NORAD_CAT_ID": 39418, "ELEMENT_SET_NO": 999, "REV_AT_EPOCH": 66226, "BSTAR": 0.00021063905, "MEAN_MOTION_DOT": 3.542e-05, "MEAN_MOTION_DDOT": 0}, "tle": {"line1": "1 39418U 13066C   25359.71496978  .00003542  00000+0  21064-3 0  9995", "line2": "2 39418  97.4085  49.5285 0021700 190.0652 170.0148 15.11695287662264"}}, "geometry": {"type": "Point", "coordinates": [82.67970267215458, -76.44100344131674]}}, {"type": "Feature", "properties": {"norad_id": 39419, "name": "DUBAISAT-2", "group": "resource", "lat": -81.80900827652334, "lon": 104.89597730780912, "alt_km": 541.4006984817051, "timestamp": "2025-12-26T05:31:12.156859+00:00", "meta": {"OBJECT_NAME": "DUBAISAT-2", "OBJECT_ID": "2013-066D", "EPOCH": "2025-12-25T23:33:54.559008", "MEAN_MOTION": 15.08482076, "ECCENTRICITY": 0.00098318, "INCLINATION": 97.4469, "RA_OF_ASC_NODE": 349.9819, "ARG_OF_PERICENTER": 269.4023, "MEAN_ANOMALY": 90.6079, "EPHEMERIS_TYPE": 0, "CLASSIFICATION_TYPE": "U", "NORAD_CAT_ID": 39419, "ELEMENT_SET_NO": 999, "REV_AT_EPOCH": 66026, "BSTAR": 0.00026493183, "MEAN_MOTION_DOT": 4.072e-05, "MEAN_MOTION_DDOT": 0}, "tle": {"line1": "1 39419U 13066D   25359.98188147  .00004072  00000+0  26493-3 0  9991", "line2": "2 39419  97.4469 349.9819 0009831 269.4023  90.6079 15.08482076660269"}}, "geometry": {"type": "Point", "coordinates": [104.89597730780912, -81.80900827652334]}}, {"type": "Feature", "properties": {"norad_id": 39574, "name": "GPM-CORE", "group": "resource", "lat": 34.197908189505014, "lon": -173.98386263290504, "alt_km": 434.37466211037554, "timestamp": "2025-12-26T05:31:12.156869+00:00", "meta": {"OBJECT_NAME": "GPM-CORE", "OBJECT_ID": "2014-009C", "EPOCH": "2025-12-25T21:35:06.956448", "MEAN_MOTION": 15.44669941, "ECCENTRICITY": 0.00090584, "INCLINATION": 64.9728, "RA_OF_ASC_NODE": 168.6114, "ARG_OF_PERICENTER": 251.1703, "MEAN_ANOMALY": 108.8456, "EPHEMERIS_TYPE": 0, "CLASSIFICATION_TYPE": "U", "NORAD_CAT_ID": 39574, "ELEMENT_SET_NO": 999, "REV_AT_EPOCH": 67104, "BSTAR": 0.00019412562, "MEAN_MOTION_DOT": 8.869e-05, "MEAN_MOTION_DDOT": 0}, "tle": {"line1": "1 39574U 14009C   25359.89938607  .00008869  00000+0  19413-3 0  9997", "line2": "2 39574  64.9728 168.6114 0009058 251.1703 108.8456 15.44669941671043"}}, "geometry": {"type": "Point", "coordinates": [-173.98386263290504, 34.197908189505014]}}]}